start=new Date('2023-05-28T00:00:00.000Z').valueOf();
sats=[{"GP_ID":"232636381","PERIOD":"93.586","ARG_OF_PERICENTER":"275.1602","COUNTRY_CODE":"US","TIME_SYSTEM":"UTC","PERIAPSIS":"448.904","OBJECT_ID":"2023-046BD","MEAN_MOTION_DDOT":"0.0000000000000","DECAY_DATE":null,"BSTAR":"-0.02650400000000","INCLINATION":"42.9993","RA_OF_ASC_NODE":"273.3476","MEAN_ANOMALY":"73.9366","REV_AT_EPOCH":"130","ELEMENT_SET_NO":"999","LAUNCH_DATE":"2023-03-29","MEAN_MOTION_DOT":"-0.00948066","APOAPSIS":"451.022","CLASSIFICATION_TYPE":"U","EPHEMERIS_TYPE":"0","OBJECT_TYPE":"PAYLOAD","RCS_SIZE":"LARGE","REF_FRAME":"TEME","FILE":"3918755","MEAN_MOTION":"15.38697083","ECCENTRICITY":"0.00015510","CENTER_NAME":"EARTH","TLE_LINE1":"1 56143U 23046BD  23147.91667824 -.00948066  00000-0 -26504-1 0  9997","OBJECT_NAME":"STARLINK-5016","SITE":"AFETR","NORAD_CAT_ID":"56143","EPOCH":"2023-05-27T22:00:00.999936","SEMIMAJOR_AXIS":"6828.098","TLE_LINE2":"2 56143  42.9993 273.3476 0001551 275.1602  73.9366 15.38697083  1302","MEAN_ELEMENT_THEORY":"SGP4"},{"PERIOD":"93.628","ARG_OF_PERICENTER":"266.3170","GP_ID":"232636631","COUNTRY_CODE":"US","TIME_SYSTEM":"UTC","PERIAPSIS":"451.016","OBJECT_ID":"2023-046BE","DECAY_DATE":null,"MEAN_MOTION_DDOT":"0.0000000000000","BSTAR":"-0.02714600000000","INCLINATION":"42.9992","RA_OF_ASC_NODE":"273.3818","REV_AT_EPOCH":"130","MEAN_ANOMALY":"65.5966","APOAPSIS":"453.074","LAUNCH_DATE":"2023-03-29","MEAN_MOTION_DOT":"-0.00948739","ELEMENT_SET_NO":"999","CLASSIFICATION_TYPE":"U","EPHEMERIS_TYPE":"0","OBJECT_TYPE":"PAYLOAD","RCS_SIZE":"LARGE","REF_FRAME":"TEME","MEAN_MOTION":"15.37993624","FILE":"3918755","TLE_LINE1":"1 56144U 23046BE  23147.91667824 -.00948739  00000-0 -27146-1 0  9998","CENTER_NAME":"EARTH","ECCENTRICITY":"0.00015060","OBJECT_NAME":"STARLINK-5374","SITE":"AFETR","SEMIMAJOR_AXIS":"6830.180","EPOCH":"2023-05-27T22:00:00.999936","NORAD_CAT_ID":"56144","TLE_LINE2":"2 56144  42.9992 273.3818 0001506 266.3170  65.5966 15.37993624  1306","MEAN_ELEMENT_THEORY":"SGP4"},{"LAUNCH_DATE":"2023-03-29","MEAN_MOTION_DOT":"-0.00000115","ELEMENT_SET_NO":"999","APOAPSIS":"356.202","MEAN_ANOMALY":"79.0681","REV_AT_EPOCH":"981","RA_OF_ASC_NODE":"268.5208","INCLINATION":"42.9981","OBJECT_TYPE":"PAYLOAD","EPHEMERIS_TYPE":"0","CLASSIFICATION_TYPE":"U","TIME_SYSTEM":"UTC","COUNTRY_CODE":"US","GP_ID":"232608920","PERIOD":"91.641","ARG_OF_PERICENTER":"280.9992","BSTAR":"0.00000257430000","MEAN_MOTION_DDOT":"0.0000000000000","DECAY_DATE":null,"OBJECT_ID":"2023-046BF","PERIAPSIS":"353.862","SITE":"AFETR","MEAN_ELEMENT_THEORY":"SGP4","TLE_LINE2":"2 56145  42.9981 268.5208 0001738 280.9992  79.0681 15.71352681  9813","NORAD_CAT_ID":"56145","EPOCH":"2023-05-27T18:09:54.648000","SEMIMAJOR_AXIS":"6733.167","RCS_SIZE":"LARGE","OBJECT_NAME":"STARLINK-5370","ECCENTRICITY":"0.00017380","CENTER_NAME":"EARTH","TLE_LINE1":"1 56145U 23046BF  23147.75688250 -.00000115  00000-0  25743-5 0  9998","MEAN_MOTION":"15.71352681","FILE":"3918688","REF_FRAME":"TEME"},{"OBJECT_NAME":"STARLINK-5111","TLE_LINE1":"1 56146U 23046BG  23147.91667824 -.00947949  00000-0 -26631-1 0  9990","CENTER_NAME":"EARTH","ECCENTRICITY":"0.00015470","MEAN_MOTION":"15.38548013","FILE":"3918755","REF_FRAME":"TEME","RCS_SIZE":"LARGE","MEAN_ELEMENT_THEORY":"SGP4","TLE_LINE2":"2 56146  42.9993 273.3563 0001547 277.1329  68.2719 15.38548013  1302","SEMIMAJOR_AXIS":"6828.539","EPOCH":"2023-05-27T22:00:00.999936","NORAD_CAT_ID":"56146","SITE":"AFETR","BSTAR":"-0.02663100000000","DECAY_DATE":null,"MEAN_MOTION_DDOT":"0.0000000000000","OBJECT_ID":"2023-046BG","PERIAPSIS":"449.348","TIME_SYSTEM":"UTC","COUNTRY_CODE":"US","ARG_OF_PERICENTER":"277.1329","PERIOD":"93.595","GP_ID":"232637633","OBJECT_TYPE":"PAYLOAD","EPHEMERIS_TYPE":"0","CLASSIFICATION_TYPE":"U","APOAPSIS":"451.461","ELEMENT_SET_NO":"999","LAUNCH_DATE":"2023-03-29","MEAN_MOTION_DOT":"-0.00947949","REV_AT_EPOCH":"130","MEAN_ANOMALY":"68.2719","RA_OF_ASC_NODE":"273.3563","INCLINATION":"42.9993"},{"COUNTRY_CODE":"US","TIME_SYSTEM":"UTC","GP_ID":"232636881","ARG_OF_PERICENTER":"266.6733","PERIOD":"91.641","MEAN_MOTION_DDOT":"0.0000000000000","DECAY_DATE":null,"BSTAR":"0.00000473310000","PERIAPSIS":"353.972","OBJECT_ID":"2023-046BH","MEAN_ANOMALY":"93.3953","REV_AT_EPOCH":"927","ELEMENT_SET_NO":"999","LAUNCH_DATE":"2023-03-29","MEAN_MOTION_DOT":"0.00000169","APOAPSIS":"356.116","INCLINATION":"43.0006","RA_OF_ASC_NODE":"268.5184","OBJECT_TYPE":"PAYLOAD","CLASSIFICATION_TYPE":"U","EPHEMERIS_TYPE":"0","RCS_SIZE":"LARGE","ECCENTRICITY":"0.00015920","CENTER_NAME":"EARTH","TLE_LINE1":"1 56147U 23046BH  23147.75667545  .00000169  00000-0  47331-5 0  9999","OBJECT_NAME":"STARLINK-5140","REF_FRAME":"TEME","FILE":"3918755","MEAN_MOTION":"15.71348477","SITE":"AFETR","MEAN_ELEMENT_THEORY":"SGP4","NORAD_CAT_ID":"56147","SEMIMAJOR_AXIS":"6733.179","EPOCH":"2023-05-27T18:09:36.758880","TLE_LINE2":"2 56147  43.0006 268.5184 0001592 266.6733  93.3953 15.71348477  9279"},{"RCS_SIZE":"LARGE","OBJECT_NAME":"STARLINK-5089","CENTER_NAME":"EARTH","ECCENTRICITY":"0.00017840","TLE_LINE1":"1 56148U 23046BJ  23147.75677893 -.00000518  00000-0 -50158-6 0  9999","FILE":"3918755","MEAN_MOTION":"15.71350068","REF_FRAME":"TEME","SITE":"AFETR","MEAN_ELEMENT_THEORY":"SGP4","TLE_LINE2":"2 56148  42.9993 268.5172 0001784 272.7077  87.3586 15.71350068  9276","NORAD_CAT_ID":"56148","EPOCH":"2023-05-27T18:09:45.699552","SEMIMAJOR_AXIS":"6733.175","TIME_SYSTEM":"UTC","COUNTRY_CODE":"US","GP_ID":"232637131","PERIOD":"91.641","ARG_OF_PERICENTER":"272.7077","BSTAR":"-0.00000050158000","MEAN_MOTION_DDOT":"0.0000000000000","DECAY_DATE":null,"OBJECT_ID":"2023-046BJ","PERIAPSIS":"353.838","MEAN_MOTION_DOT":"-0.00000518","LAUNCH_DATE":"2023-03-29","ELEMENT_SET_NO":"999","APOAPSIS":"356.241","MEAN_ANOMALY":"87.3586","REV_AT_EPOCH":"927","RA_OF_ASC_NODE":"268.5172","INCLINATION":"42.9993","OBJECT_TYPE":"PAYLOAD","EPHEMERIS_TYPE":"0","CLASSIFICATION_TYPE":"U"},{"EPHEMERIS_TYPE":"0","CLASSIFICATION_TYPE":"U","OBJECT_TYPE":"PAYLOAD","INCLINATION":"43.0017","RA_OF_ASC_NODE":"340.6072","APOAPSIS":"490.840","LAUNCH_DATE":"2023-04-19","ELEMENT_SET_NO":"999","MEAN_MOTION_DOT":"-0.02093658","REV_AT_EPOCH":"130","MEAN_ANOMALY":"3.1381","OBJECT_ID":"2023-056B","PERIAPSIS":"488.295","BSTAR":"-0.09039200000000","DECAY_DATE":null,"MEAN_MOTION_DDOT":"0.0000000000000","PERIOD":"94.401","ARG_OF_PERICENTER":"235.9064","GP_ID":"232638275","TIME_SYSTEM":"UTC","COUNTRY_CODE":"US","TLE_LINE2":"2 56287  43.0017 340.6072 0001853 235.9064   3.1381 15.25406412  1303","EPOCH":"2023-05-27T22:00:00.999936","SEMIMAJOR_AXIS":"6867.702","NORAD_CAT_ID":"56287","MEAN_ELEMENT_THEORY":"SGP4","SITE":"AFETR","MEAN_MOTION":"15.25406412","FILE":"3918755","REF_FRAME":"TEME","OBJECT_NAME":"STARLINK-30107","TLE_LINE1":"1 56287U 23056B   23147.91667824 -.02093658  00000-0 -90392-1 0  9993","CENTER_NAME":"EARTH","ECCENTRICITY":"0.00018530","RCS_SIZE":"LARGE"},{"ARG_OF_PERICENTER":"244.6252","PERIOD":"95.090","GP_ID":"232638461","TIME_SYSTEM":"UTC","COUNTRY_CODE":"US","OBJECT_ID":"2023-056C","PERIAPSIS":"521.308","BSTAR":"0.00161180000000","DECAY_DATE":null,"MEAN_MOTION_DDOT":"0.0000000000000","INCLINATION":"43.0016","RA_OF_ASC_NODE":"341.6823","APOAPSIS":"524.580","LAUNCH_DATE":"2023-04-19","ELEMENT_SET_NO":"999","MEAN_MOTION_DOT":"0.00029984","REV_AT_EPOCH":"699","MEAN_ANOMALY":"115.4350","EPHEMERIS_TYPE":"0","CLASSIFICATION_TYPE":"U","OBJECT_TYPE":"PAYLOAD","RCS_SIZE":"LARGE","MEAN_MOTION":"15.14353530","FILE":"3918755","REF_FRAME":"TEME","OBJECT_NAME":"STARLINK-30106","TLE_LINE1":"1 56288U 23056C   23147.87022567  .00029984  00000-0  16118-2 0  9990","CENTER_NAME":"EARTH","ECCENTRICITY":"0.00023710","SITE":"AFETR","TLE_LINE2":"2 56288  43.0016 341.6823 0002371 244.6252 115.4350 15.14353530  6993","SEMIMAJOR_AXIS":"6901.079","EPOCH":"2023-05-27T20:53:07.497888","NORAD_CAT_ID":"56288","MEAN_ELEMENT_THEORY":"SGP4"},{"MEAN_ELEMENT_THEORY":"SGP4","TLE_LINE2":"2 56289  42.9995 329.0606 0001777 284.9356 342.9180 15.74829545  1306","NORAD_CAT_ID":"56289","SEMIMAJOR_AXIS":"6723.253","EPOCH":"2023-05-27T22:00:00.999936","SITE":"AFETR","OBJECT_NAME":"STARLINK-30095","ECCENTRICITY":"0.00017770","CENTER_NAME":"EARTH","TLE_LINE1":"1 56289U 23056D   23147.91667824 -.00431181  00000-0 -29766-2 0  9998","FILE":"3918755","MEAN_MOTION":"15.74829545","REF_FRAME":"TEME","RCS_SIZE":"LARGE","OBJECT_TYPE":"PAYLOAD","EPHEMERIS_TYPE":"0","CLASSIFICATION_TYPE":"U","MEAN_MOTION_DOT":"-0.00431181","LAUNCH_DATE":"2023-04-19","ELEMENT_SET_NO":"999","APOAPSIS":"346.313","MEAN_ANOMALY":"342.9180","REV_AT_EPOCH":"130","INCLINATION":"42.9995","RA_OF_ASC_NODE":"329.0606","BSTAR":"-0.00297660000000","MEAN_MOTION_DDOT":"0.0000000000000","DECAY_DATE":null,"OBJECT_ID":"2023-056D","PERIAPSIS":"343.924","TIME_SYSTEM":"UTC","COUNTRY_CODE":"US","GP_ID":"232638585","ARG_OF_PERICENTER":"284.9356","PERIOD":"91.438"},{"SITE":"AFETR","NORAD_CAT_ID":"56290","SEMIMAJOR_AXIS":"6901.125","EPOCH":"2023-05-27T22:00:00.999936","TLE_LINE2":"2 56290  43.0017 341.4003 0001380 286.3785 338.8354 15.14338218  1309","MEAN_ELEMENT_THEORY":"SGP4","RCS_SIZE":"LARGE","REF_FRAME":"TEME","FILE":"3918755","MEAN_MOTION":"15.14338218","CENTER_NAME":"EARTH","ECCENTRICITY":"0.00013800","TLE_LINE1":"1 56290U 23056E   23147.91667824 -.00069285  00000-0 -37369-2 0  9990","OBJECT_NAME":"STARLINK-30103","INCLINATION":"43.0017","RA_OF_ASC_NODE":"341.4003","MEAN_ANOMALY":"338.8354","REV_AT_EPOCH":"130","MEAN_MOTION_DOT":"-0.00069285","LAUNCH_DATE":"2023-04-19","ELEMENT_SET_NO":"999","APOAPSIS":"523.943","CLASSIFICATION_TYPE":"U","EPHEMERIS_TYPE":"0","OBJECT_TYPE":"PAYLOAD","GP_ID":"232638399","ARG_OF_PERICENTER":"286.3785","PERIOD":"95.091","COUNTRY_CODE":"US","TIME_SYSTEM":"UTC","PERIAPSIS":"522.038","OBJECT_ID":"2023-056E","MEAN_MOTION_DDOT":"0.0000000000000","DECAY_DATE":null,"BSTAR":"-0.00373690000000"}];
